{
  "norad_id": 66221,
  "name": "STARLINK-35704",
  "history": [
    {
      "epoch": "2026-04-15T13:26:51.334368Z",
      "apogee_km": 476.1717226648034,
      "perigee_km": 474.2473029640041,
      "latitude_deg": 3.5376234487301485e-05,
      "longitude_deg": 13.278804138876826,
      "height_km": 475.9231761102255,
      "semi_major_axis_km": 6853.3465128144035,
      "eccentricity": 0.0001404,
      "inclination_deg": 53.1578,
      "raan_deg": 58.7133,
      "arg_perigee_deg": 78.9741,
      "mean_anomaly_deg": 281.1418,
      "mean_motion_rev_day": 15.30201861
    },
    {
      "epoch": "2026-04-16T20:47:55.078944Z",
      "apogee_km": 475.97492774869534,
      "perigee_km": 474.38358771365074,
      "latitude_deg": -5.169058829796654e-06,
      "longitude_deg": -104.34406742127352,
      "height_km": 475.60869244086905,
      "semi_major_axis_km": 6853.316257731172,
      "eccentricity": 0.0001161,
      "inclination_deg": 53.1579,
      "raan_deg": 52.6436,
      "arg_perigee_deg": 53.8937,
      "mean_anomaly_deg": 306.2171,
      "mean_motion_rev_day": 15.30211994
    },
    {
      "epoch": "2026-04-17T06:12:14.140800Z",
      "apogee_km": 476.104353081254,
      "perigee_km": 474.30535084511394,
      "latitude_deg": -1.0875875105378236e-05,
      "longitude_deg": 112.37304274002918,
      "height_km": 476.10302010353877,
      "semi_major_axis_km": 6853.341851963184,
      "eccentricity": 0.00013125,
      "inclination_deg": 53.1609,
      "raan_deg": 50.8264,
      "arg_perigee_deg": 90.0033,
      "mean_anomaly_deg": 270.1118,
      "mean_motion_rev_day": 15.30203422
    },
    {
      "epoch": "2026-04-18T05:43:02.137152Z",
      "apogee_km": 476.00993163264684,
      "perigee_km": 474.38295027376444,
      "latitude_deg": 2.105368225288265e-05,
      "longitude_deg": 114.15572433895406,
      "height_km": 476.11022975596796,
      "semi_major_axis_km": 6853.333440953205,
      "eccentricity": 0.0001187,
      "inclination_deg": 53.1612,
      "raan_deg": 46.2747,
      "arg_perigee_deg": 91.0898,
      "mean_anomaly_deg": 269.0239,
      "mean_motion_rev_day": 15.30206239
    },
    {
      "epoch": "2026-04-19T05:13:51.076992Z",
      "apogee_km": 476.2861151951247,
      "perigee_km": 474.2342080849303,
      "latitude_deg": -2.233921550967059e-05,
      "longitude_deg": 115.93680672220246,
      "height_km": 476.15606803473634,
      "semi_major_axis_km": 6853.397161640028,
      "eccentricity": 0.0001497,
      "inclination_deg": 53.1616,
      "raan_deg": 41.7254,
      "arg_perigee_deg": 89.887,
      "mean_anomaly_deg": 270.2302,
      "mean_motion_rev_day": 15.30184898
    },
    {
      "epoch": "2026-04-20T12:34:54.402528Z",
      "apogee_km": 476.4859529997957,
      "perigee_km": 473.90224717506226,
      "latitude_deg": -1.5641931089647343e-05,
      "longitude_deg": -1.6840835192185897,
      "height_km": 476.1863953728879,
      "semi_major_axis_km": 6853.331100087429,
      "eccentricity": 0.0001885,
      "inclination_deg": 53.1618,
      "raan_deg": 35.6559,
      "arg_perigee_deg": 94.2121,
      "mean_anomaly_deg": 265.9095,
      "mean_motion_rev_day": 15.30207023
    },
    {
      "epoch": "2026-04-21T19:55:57.773856Z",
      "apogee_km": 476.1246734541337,
      "perigee_km": 474.261938276999,
      "latitude_deg": 3.922911978173468e-05,
      "longitude_deg": -119.30353027668946,
      "height_km": 476.49098316776605,
      "semi_major_axis_km": 6853.330305865566,
      "eccentricity": 0.0001359,
      "inclination_deg": 53.1606,
      "raan_deg": 29.588,
      "arg_perigee_deg": 115.3996,
      "mean_anomaly_deg": 244.7146,
      "mean_motion_rev_day": 15.30207289
    },
    {
      "epoch": "2026-04-22T11:36:30.227616Z",
      "apogee_km": 476.1683803439655,
      "perigee_km": 474.31426737222955,
      "latitude_deg": 5.518939083380614e-05,
      "longitude_deg": 1.885378626346535,
      "height_km": 476.2663823273044,
      "semi_major_axis_km": 6853.378323858097,
      "eccentricity": 0.00013527,
      "inclination_deg": 53.1613,
      "raan_deg": 26.5559,
      "arg_perigee_deg": 97.871,
      "mean_anomaly_deg": 262.2445,
      "mean_motion_rev_day": 15.30191207
    },
    {
      "epoch": "2026-04-23T11:07:18.168672Z",
      "apogee_km": 476.478183152999,
      "perigee_km": 473.91380301364734,
      "latitude_deg": -1.956693677299773e-06,
      "longitude_deg": 3.667521959855165,
      "height_km": 476.1335087403714,
      "semi_major_axis_km": 6853.332993083322,
      "eccentricity": 0.00018709,
      "inclination_deg": 53.1605,
      "raan_deg": 22.0035,
      "arg_perigee_deg": 91.7981,
      "mean_anomaly_deg": 268.3234,
      "mean_motion_rev_day": 15.30206389
    },
    {
      "epoch": "2026-04-24T10:38:05.942112Z",
      "apogee_km": 476.12937082542066,
      "perigee_km": 474.3241948050272,
      "latitude_deg": 3.138605604209571e-05,
      "longitude_deg": 5.453733746126216,
      "height_km": 476.10836509547397,
      "semi_major_axis_km": 6853.363782815223,
      "eccentricity": 0.0001317,
      "inclination_deg": 53.1603,
      "raan_deg": 17.4544,
      "arg_perigee_deg": 88.9554,
      "mean_anomaly_deg": 271.1598,
      "mean_motion_rev_day": 15.30196077
    },
    {
      "epoch": "2026-04-25T16:25:06.303072Z",
      "apogee_km": 476.0187546210682,
      "perigee_km": 474.3410626418363,
      "latitude_deg": 2.8835875516032273e-05,
      "longitude_deg": -88.28343484931949,
      "height_km": 476.2315418896142,
      "semi_major_axis_km": 6853.316908631452,
      "eccentricity": 0.0001224,
      "inclination_deg": 53.159,
      "raan_deg": 11.6919,
      "arg_perigee_deg": 100.5493,
      "mean_anomaly_deg": 259.5646,
      "mean_motion_rev_day": 15.30211776
    },
    {
      "epoch": "2026-04-26T20:38:04.033824Z",
      "apogee_km": 475.76320870812015,
      "perigee_km": 474.5988299766341,
      "latitude_deg": -6.052734061895007e-08,
      "longitude_deg": -158.14599215569473,
      "height_km": 476.0611784539096,
      "semi_major_axis_km": 6853.318019342377,
      "eccentricity": 8.495e-05,
      "inclination_deg": 53.1587,
      "raan_deg": 6.2287,
      "arg_perigee_deg": 88.1942,
      "mean_anomaly_deg": 271.9156,
      "mean_motion_rev_day": 15.30211404
    },
    {
      "epoch": "2026-04-27T20:08:52.259136Z",
      "apogee_km": 475.8360106046366,
      "perigee_km": 474.56403125355246,
      "latitude_deg": 5.5396480188992596e-05,
      "longitude_deg": -156.36334972680353,
      "height_km": 475.84691779108795,
      "semi_major_axis_km": 6853.337020929094,
      "eccentricity": 9.28e-05,
      "inclination_deg": 53.1597,
      "raan_deg": 1.6779,
      "arg_perigee_deg": 66.686,
      "mean_anomaly_deg": 293.4239,
      "mean_motion_rev_day": 15.3020504
    },
    {
      "epoch": "2026-04-28T19:39:40.086144Z",
      "apogee_km": 475.97793454600287,
      "perigee_km": 474.40852192373677,
      "latitude_deg": 1.2740657688948241e-05,
      "longitude_deg": -154.57541630861877,
      "height_km": 476.2872084875968,
      "semi_major_axis_km": 6853.3302282348695,
      "eccentricity": 0.0001145,
      "inclination_deg": 53.1603,
      "raan_deg": 357.1308,
      "arg_perigee_deg": 104.4383,
      "mean_anomaly_deg": 255.6745,
      "mean_motion_rev_day": 15.30207315
    },
    {
      "epoch": "2026-04-29T20:00:01.999008Z",
      "apogee_km": 475.94009753916816,
      "perigee_km": 474.47348196815983,
      "latitude_deg": -7.978641147359257,
      "longitude_deg": 20.61706512246066,
      "height_km": 477.6642515782831,
      "semi_major_axis_km": 6853.343789753663,
      "eccentricity": 0.000107,
      "inclination_deg": 53.1591,
      "raan_deg": 352.4199,
      "arg_perigee_deg": 85.7525,
      "mean_anomaly_deg": 104.0643,
      "mean_motion_rev_day": 15.30202773
    },
    {
      "epoch": "2026-04-30T15:33:09.444672Z",
      "apogee_km": 475.8119991111598,
      "perigee_km": 474.55633360705997,
      "latitude_deg": -2.0447872603617313e-05,
      "longitude_deg": -103.24712753797743,
      "height_km": 475.92460430980793,
      "semi_major_axis_km": 6853.32116635911,
      "eccentricity": 9.161e-05,
      "inclination_deg": 53.1574,
      "raan_deg": 348.634,
      "arg_perigee_deg": 75.4353,
      "mean_anomaly_deg": 284.6749,
      "mean_motion_rev_day": 15.3021035
    },
    {
      "epoch": "2026-05-02T00:28:16.703328Z",
      "apogee_km": 475.9194199016747,
      "perigee_km": 474.5788975690248,
      "latitude_deg": 7.237370373152272e-06,
      "longitude_deg": 115.2507248680999,
      "height_km": 475.8367940519011,
      "semi_major_axis_km": 6853.386158735349,
      "eccentricity": 9.78e-05,
      "inclination_deg": 53.1592,
      "raan_deg": 342.264,
      "arg_perigee_deg": 62.3646,
      "mean_anomaly_deg": 297.7454,
      "mean_motion_rev_day": 15.30188583
    },
    {
      "epoch": "2026-05-03T20:21:46.193184Z",
      "apogee_km": 475.85909019975406,
      "perigee_km": 474.503503840604,
      "latitude_deg": -2.0583780580267657e-06,
      "longitude_deg": 166.58147792496314,
      "height_km": 476.09856539886255,
      "semi_major_axis_km": 6853.318297020179,
      "eccentricity": 9.89e-05,
      "inclination_deg": 53.1606,
      "raan_deg": 333.7702,
      "arg_perigee_deg": 91.5847,
      "mean_anomaly_deg": 268.5267,
      "mean_motion_rev_day": 15.30211311
    },
    {
      "epoch": "2026-05-04T18:18:30.899232Z",
      "apogee_km": 476.0950756980019,
      "perigee_km": 474.3077250431852,
      "latitude_deg": 6.546792480487141e-05,
      "longitude_deg": -167.758130146004,
      "height_km": 476.5369379468954,
      "semi_major_axis_km": 6853.338400370593,
      "eccentricity": 0.0001304,
      "inclination_deg": 53.1615,
      "raan_deg": 329.5181,
      "arg_perigee_deg": 119.2844,
      "mean_anomaly_deg": 240.8288,
      "mean_motion_rev_day": 15.30204578
    }
  ]
}